[{"OBJECT_NAME":"STARLINK-34024","OBJECT_ID":"2025-102K","EPOCH":"2026-03-09T12:10:41.385216","MEAN_MOTION":14.98324766,"ECCENTRICITY":0.00030355,"INCLINATION":70.0018,"RA_OF_ASC_NODE":114.9676,"ARG_OF_PERICENTER":262.1473,"MEAN_ANOMALY":97.9341,"EPHEMERIS_TYPE":0,"CLASSIFICATION_TYPE":"U","NORAD_CAT_ID":64031,"ELEMENT_SET_NO":999,"REV_AT_EPOCH":4586,"BSTAR":-7.3838253e-5,"MEAN_MOTION_DOT":-9.74e-6,"MEAN_MOTION_DDOT":0},{"OBJECT_NAME":"NOAA 16 DEB","OBJECT_ID":"2000-055PP","EPOCH":"2026-03-07T09:37:02.399808","MEAN_MOTION":14.94870962,"ECCENTRICITY":0.00127779,"INCLINATION":98.9453,"RA_OF_ASC_NODE":285.7448,"ARG_OF_PERICENTER":347.412,"MEAN_ANOMALY":12.6776,"EPHEMERIS_TYPE":0,"CLASSIFICATION_TYPE":"U","NORAD_CAT_ID":41709,"ELEMENT_SET_NO":999,"REV_AT_EPOCH":51965,"BSTAR":0.009194972,"MEAN_MOTION_DOT":0.00101727,"MEAN_MOTION_DDOT":0}]
